NORAD_CAT_ID,OBJECT_NAME,OBJECT_TYPE,EPOCH,MEAN_MOTION,ECCENTRICITY,INCLINATION,RA_OF_ASC_NODE,ARG_OF_PERICENTER,MEAN_ANOMALY,BSTAR,MEAN_MOTION_DOT,MEAN_MOTION_DDOT,TLE_LINE0,TLE_LINE1,TLE_LINE2,SEMIMAJOR_AXIS,PERIOD,APOGEE,PERIGEE,DECAYED
52549.0,STARLINK-3935,PAYLOAD,2023-05-15 12:07:09,15.0884368,0.0001041,53.2172,69.3083,83.9758,276.1353,-3.9409e-05,-9.15e-06,0.0,0 STARLINK-3935,1 52549U 22051S   23135.50497020 -.00000915  00000-0 -39409-4 0  9992,2 52549  53.2172  69.3083 0001041  83.9758 276.1353 15.08843680 56148,6917.869,95.437,540.454,539.014,0.0
52549.0,STARLINK-3935,PAYLOAD,2023-05-16 00:50:15,15.08834027,9.28e-05,53.2175,66.9289,89.0038,271.106,7.5742e-05,9.18e-06,0.0,0 STARLINK-3935,1 52549U 22051S   23136.03489722  .00000918  00000-0  75742-4 0  9992,2 52549  53.2175  66.9289 0000928  89.0038 271.1060 15.08834027 56227,6917.899,95.438,540.406,539.122,0.0
52549.0,STARLINK-3935,PAYLOAD,2023-05-16 19:54:52,15.08829515,0.0001105,53.2189,63.3627,109.6331,250.4781,0.0001387,1.92e-05,0.0,0 STARLINK-3935,1 52549U 22051S   23136.82977948  .00001920  00000-0  13870-3 0  9998,2 52549  53.2189  63.3627 0001105 109.6331 250.4781 15.08829515 56273,6917.912,95.438,540.542,539.013,0.0
52549.0,STARLINK-3935,PAYLOAD,2023-05-17 02:16:25,15.08843352,9.35e-05,53.2182,62.1717,94.7491,265.3608,-9.4234e-06,-4.38e-06,0.0,0 STARLINK-3935,1 52549U 22051S   23137.09473664 -.00000438  00000-0 -94234-5 0  9994,2 52549  53.2182  62.1717 0000935  94.7491 265.3608 15.08843352 56384,6917.87,95.437,540.382,539.088,0.0
52549.0,STARLINK-3935,PAYLOAD,2023-05-18 02:07:13,15.08808839,0.0001197,53.2182,57.7119,102.3681,257.7446,0.00047099,7.21e-05,0.0,0 STARLINK-3935,1 52549U 22051S   23138.08834510  .00007210  00000-0  47099-3 0  9993,2 52549  53.2182  57.7119 0001197 102.3681 257.7446 15.08808839 56531,6917.976,95.44,540.669,539.013,0.0
52549.0,STARLINK-3935,PAYLOAD,2023-05-18 03:42:35,15.08842006,9.88e-05,53.2178,57.4135,87.4195,272.691,3.4558e-05,2.62e-06,0.0,0 STARLINK-3935,1 52549U 22051S   23138.15457789  .00000262  00000-0  34558-4 0  9997,2 52549  53.2178  57.4135 0000988  87.4195 272.6910 15.08842006 56548,6917.874,95.437,540.423,539.056,0.0
52549.0,STARLINK-3935,PAYLOAD,2023-05-18 19:36:27,15.08837846,9.96e-05,53.2178,54.4396,85.0875,275.023,4.1879e-05,3.79e-06,0.0,0 STARLINK-3935,1 52549U 22051S   23138.81698137  .00000379  00000-0  41879-4 0  9997,2 52549  53.2178  54.4396 0000996  85.0875 275.0230 15.08837846 56573,6917.887,95.438,540.441,539.063,0.0
52549.0,STARLINK-3935,PAYLOAD,2023-05-19 03:33:22,15.08844489,9.91e-05,53.2178,52.9527,92.115,267.9956,9.8182e-05,1.275e-05,0.0,0 STARLINK-3935,1 52549U 22051S   23139.14817539  .00001275  00000-0  98182-4 0  9998,2 52549  53.2178  52.9527 0000991  92.1150 267.9956 15.08844489 56624,6917.867,95.437,540.417,539.046,0.0
52549.0,STARLINK-3935,PAYLOAD,2023-05-20 00:13:23,15.08843391,0.0001184,53.2183,49.0865,82.7746,277.3381,7.0154e-05,8.29e-06,0.0,0 STARLINK-3935,1 52549U 22051S   23140.00929706  .00000829  00000-0  70154-4 0  9998,2 52549  53.2183  49.0865 0001184  82.7746 277.3381 15.08843391 56823,6917.87,95.437,540.554,538.916,0.0
52549.0,STARLINK-3935,PAYLOAD,2023-05-20 20:53:23,15.08852676,0.0001106,53.2175,45.2201,98.3777,261.734,9.7558e-05,1.266e-05,0.0,0 STARLINK-3935,1 52549U 22051S   23140.87040707  .00001266  00000-0  97558-4 0  9991,2 52549  53.2175  45.2201 0001106  98.3777 261.7340 15.08852676 56881,6917.842,95.437,540.472,538.942,0.0
52549.0,STARLINK-3935,PAYLOAD,2023-05-21 03:14:55,15.08860843,0.0001194,53.2178,44.0306,92.8883,267.2245,0.00016677,2.369e-05,0.0,0 STARLINK-3935,1 52549U 22051S   23141.13535883  .00002369  00000-0  16677-3 0  9992,2 52549  53.2178  44.0306 0001194  92.8883 267.2245 15.08860843 56993,6917.817,95.436,540.508,538.856,0.0
52549.0,STARLINK-3935,PAYLOAD,2023-05-21 23:54:58,15.08826792,0.0001124,53.2187,40.1666,100.9135,259.1983,-9.5792e-05,-1.811e-05,0.0,0 STARLINK-3935,1 52549U 22051S   23141.99651090 -.00001811  00000-0 -95792-4 0  9994,2 52549  53.2187  40.1666 0001124 100.9135 259.1983 15.08826792 57123,6917.921,95.438,540.563,539.008,0.0
52549.0,STARLINK-3935,PAYLOAD,2023-05-22 17:24:12,15.08843465,0.0001006,53.2186,36.8937,99.2986,260.812,-1.8041e-05,-5.75e-06,0.0,0 STARLINK-3935,1 52549U 22051S   23142.72514161 -.00000575  00000-0 -18041-4 0  9991,2 52549  53.2186  36.8937 0001006  99.2986 260.8120 15.08843465 57238,6917.87,95.437,540.431,539.039,0.0
52549.0,STARLINK-3935,PAYLOAD,2023-05-23 02:56:30,15.08852448,0.0001098,53.2178,35.11,99.5141,260.5975,0.00022357,3.273e-05,0.0,0 STARLINK-3935,1 52549U 22051S   23143.12257644  .00003273  00000-0  22357-3 0  9996,2 52549  53.2178  35.1100 0001098  99.5141 260.5975 15.08852448 57292,6917.842,95.437,540.467,538.948,0.0
52549.0,STARLINK-3935,PAYLOAD,2023-05-23 20:25:46,15.08835547,0.0001225,53.2174,31.8371,103.4713,256.6416,0.00023749,3.493e-05,0.0,0 STARLINK-3935,1 52549U 22051S   23143.85122729  .00003493  00000-0  23749-3 0  9991,2 52549  53.2174  31.8371 0001225 103.4713 256.6416 15.08835547 57335,6917.894,95.438,540.606,538.912,0.0
52549.0,STARLINK-3935,PAYLOAD,2023-05-23 23:36:32,15.08838628,0.0001102,53.2174,31.2485,107.4385,252.6728,0.00022052,3.223e-05,0.0,0 STARLINK-3935,1 52549U 22051S   23143.98370620  .00003223  00000-0  22052-3 0  9997,2 52549  53.2174  31.2485 0001102 107.4385 252.6728 15.08838628 57423,6917.885,95.438,540.512,538.987,0.0
52549.0,STARLINK-3935,PAYLOAD,2023-05-24 15:30:23,15.08844321,0.0001065,53.2177,28.2753,112.3141,247.7964,-7.8517e-06,-4.13e-06,0.0,0 STARLINK-3935,1 52549U 22051S   23144.64610302 -.00000413  00000-0 -78517-5 0  9994,2 52549  53.2177  28.2753 0001065 112.3141 247.7964 15.08844321 57450,6917.867,95.437,540.469,538.995,0.0
52549.0,STARLINK-3935,PAYLOAD,2023-05-25 21:42:42,15.08844776,9.56e-05,53.2168,22.6221,82.5249,277.5852,4.6785e-05,4.57e-06,0.0,0 STARLINK-3935,1 52549U 22051S   23145.90466407  .00000457  00000-0  46785-4 0  9996,2 52549  53.2168  22.6221 0000956  82.5249 277.5852 15.08844776 57645,6917.866,95.437,540.392,539.069,0.0
52549.0,STARLINK-3935,PAYLOAD,2023-05-25 23:18:06,15.08846015,0.0001085,53.2176,22.3244,82.8678,277.2437,0.00010828,1.436e-05,0.0,0 STARLINK-3935,1 52549U 22051S   23145.97090366  .00001436  00000-0  10828-3 0  9996,2 52549  53.2176  22.3244 0001085  82.8678 277.2437 15.08846015 57722,6917.862,95.437,540.478,538.976,0.0
52549.0,STARLINK-3935,PAYLOAD,2023-05-26 15:11:58,15.08835731,0.000136,53.2178,19.3536,70.6498,289.4641,8.3037e-05,1.034e-05,0.0,0 STARLINK-3935,1 52549U 22051S   23146.63331123  .00001034  00000-0  83037-4 0  9996,2 52549  53.2178  19.3536 0001360  70.6498 289.4641 15.08835731 57821,6917.893,95.438,540.699,538.818,0.0
52549.0,STARLINK-3935,PAYLOAD,2023-05-26 21:33:30,15.08837466,9.98e-05,53.2181,18.1611,102.9498,257.1606,7.6076e-05,9.23e-06,0.0,0 STARLINK-3935,1 52549U 22051S   23146.89827202  .00000923  00000-0  76076-4 0  9993,2 52549  53.2181  18.1611 0000998 102.9498 257.1606 15.08837466 57797,6917.888,95.438,540.444,539.063,0.0
52549.0,STARLINK-3935,PAYLOAD,2023-05-27 08:41:11,15.0884884,0.0001153,53.218,16.081,74.1554,285.9565,0.00014044,1.948e-05,0.0,0 STARLINK-3935,1 52549U 22051S   23147.36194366  .00001948  00000-0  14044-3 0  9998,2 52549  53.2180  16.0810 0001153  74.1554 285.9565 15.08848840 57938,6917.853,95.437,540.516,538.921,0.0
52549.0,STARLINK-3935,PAYLOAD,2023-05-27 21:24:16,15.08856039,9.19e-05,53.2175,13.703,82.6726,277.4371,0.0001205,1.631e-05,0.0,0 STARLINK-3935,1 52549U 22051S   23147.89185562  .00001631  00000-0  12050-3 0  9998,2 52549  53.2175  13.7030 0000919  82.6726 277.4371 15.08856039 57945,6917.831,95.437,540.332,539.061,0.0
52549.0,STARLINK-3935,PAYLOAD,2023-05-28 21:15:04,15.08841341,0.0001093,53.2182,9.2397,94.7265,265.3852,6.7632e-05,7.89e-06,0.0,0 STARLINK-3935,1 52549U 22051S   23148.88546648  .00000789  00000-0  67632-4 0  9994,2 52549  53.2182   9.2397 0001093  94.7265 265.3852 15.08841341 58160,6917.876,95.437,540.497,538.985,0.0
52549.0,STARLINK-3935,PAYLOAD,2023-05-29 21:05:51,15.08838534,0.0001005,53.2178,4.7838,76.3516,283.7588,-2.5152e-05,-6.88e-06,0.0,0 STARLINK-3935,1 52549U 22051S   23149.87907096 -.00000688  00000-0 -25152-4 0  9993,2 52549  53.2178   4.7838 0001005  76.3516 283.7588 15.08838534 58242,6917.885,95.438,540.445,539.055,0.0
52549.0,STARLINK-3935,PAYLOAD,2023-05-30 14:35:06,15.08836854,0.0001232,53.2178,1.5128,86.2222,273.8911,0.00013324,1.833e-05,0.0,0 STARLINK-3935,1 52549U 22051S   23150.60771031  .00001833  00000-0  13324-3 0  9992,2 52549  53.2178   1.5128 0001232  86.2222 273.8911 15.08836854 58350,6917.89,95.438,540.607,538.903,0.0
52549.0,STARLINK-3935,PAYLOAD,2023-05-30 20:56:38,15.08843125,0.0001262,53.218,0.3221,90.9217,269.192,0.00018832,2.711e-05,0.0,0 STARLINK-3935,1 52549U 22051S   23150.87266567  .00002711  00000-0  18832-3 0  9999,2 52549  53.2180   0.3221 0001262  90.9217 269.1920 15.08843125 58394,6917.871,95.437,540.609,538.863,0.0
52549.0,STARLINK-3935,PAYLOAD,2023-05-31 14:25:53,15.08838207,0.0001361,53.2179,357.0556,97.2166,262.8981,7.2758e-05,8.7e-06,0.0,0 STARLINK-3935,1 52549U 22051S   23151.60131308  .00000870  00000-0  72758-4 0  9997,2 52549  53.2179 357.0556 0001361  97.2166 262.8981 15.08838207 58503,6917.886,95.438,540.692,538.809,0.0
52549.0,STARLINK-3935,PAYLOAD,2023-05-31 17:36:39,15.08836953,0.0001135,53.2175,356.4562,85.6778,274.4344,9.8059e-05,1.273e-05,0.0,0 STARLINK-3935,1 52549U 22051S   23151.73379503  .00001273  00000-0  98059-4 0  9992,2 52549  53.2175 356.4562 0001135  85.6778 274.4344 15.08836953 58595,6917.89,95.438,540.54,538.97,0.0
52549.0,STARLINK-3935,PAYLOAD,2023-05-31 20:47:25,15.08840437,0.0001128,53.2168,355.8619,86.047,274.0651,8.4318e-05,1.054e-05,0.0,0 STARLINK-3935,1 52549U 22051S   23151.86627166  .00001054  00000-0  84318-4 0  9997,2 52549  53.2168 355.8619 0001128  86.0470 274.0651 15.08840437 58543,6917.879,95.438,540.524,538.964,0.0
